index,OBJECT_NAME,OBJECT_ID,EPOCH,MEAN_MOTION,ECCENTRICITY,INCLINATION,RA_OF_ASC_NODE,ARG_OF_PERICENTER,MEAN_ANOMALY,EPHEMERIS_TYPE,CLASSIFICATION_TYPE,NORAD_CAT_ID,ELEMENT_SET_NO,REV_AT_EPOCH,BSTAR,MEAN_MOTION_DOT,MEAN_MOTION_DDOT,GROUP,downloaded
51,STRAND-1,2013-009E,2022-05-12T19:34:16.061088,14.35282804,0.0009594,98.4073,331.8788,24.966,335.1988,0,U,39090,999,48228,8.7757e-05,2.09e-06,0.0,satnogs,2022-05-13 13:10:41.661533
52,BRITE-AUSTRIA,2013-009F,2022-05-12T19:11:33.050112,14.35261297,0.0011064,98.4086,331.0273,30.4689,329.7138,0,U,39091,999,48231,6.4403e-05,1.42e-06,0.0,satnogs,2022-05-13 13:10:41.661533
53,UNIBRITE,2013-009G,2022-05-12T19:38:06.466560,14.35132024,0.0009891,98.4119,330.8013,26.5135,333.6554,0,U,39092,999,48227,6.7216e-05,1.49e-06,0.0,satnogs,2022-05-13 13:10:41.661533
54,SOMP,2013-015E,2022-05-12T13:36:01.187424,15.27408671,0.0034313,64.8616,179.5833,287.1914,72.5461,0,U,39134,999,50175,0.0004889,0.00013214,0.0,satnogs,2022-05-13 13:10:41.661533
55,BEESAT-3,2013-015F,2022-05-12T16:21:54.476064,15.23064107,0.0036324,64.8668,214.4237,294.0461,65.6868,0,U,39135,999,50066,0.00042197,9.974e-05,0.0,satnogs,2022-05-13 13:10:41.661533
56,BEESAT-2,2013-015G,2022-05-12T15:24:32.930784,15.22151615,0.0013973,64.8754,222.4926,295.5975,64.3709,0,U,39136,999,50046,0.0004253,9.635e-05,0.0,satnogs,2022-05-13 13:10:41.661533
57,NEE-01 PEGASO,2013-018B,2022-05-12T18:26:15.045216,14.80837221,0.0017004,97.9876,238.5628,15.7969,344.3771,0,U,39151,999,48840,0.00015883,1.175e-05,0.0,satnogs,2022-05-13 13:10:41.661533
58,CUBEBUG-1 (CAPITAN BETO),2013-018D,2022-05-13T04:33:28.302624,14.81515203,0.0016708,98.0086,243.2741,9.1387,351.0126,0,U,39153,999,48861,0.000194,1.47e-05,0.0,satnogs,2022-05-13 13:10:41.661533
59,ESTCUBE 1,2013-021C,2022-05-13T03:57:53.151264,14.72865285,0.0009563,97.9072,211.3192,167.1098,193.0354,0,U,39161,999,48427,0.00015986,9.75e-06,0.0,satnogs,2022-05-13 13:10:41.661533
60,FENGYUN 3C,2013-052A,2022-05-13T03:35:26.769696,14.15918572,0.0011647,98.4574,163.0458,22.6902,337.4786,0,U,39260,999,44692,4.7056e-05,5.2e-07,0.0,satnogs,2022-05-13 13:10:41.661533
61,CASSIOPE,2013-055A,2022-05-12T21:28:46.230528,14.37895945,0.0626625,80.9626,305.0332,63.608,302.8026,0,U,39265,999,44722,0.00035662,0.00013403,0.0,satnogs,2022-05-13 13:10:41.661533
62,ZACUBE-1 (TSHEPISOSAT),2013-066B,2022-05-13T04:43:37.284384,14.82190528,0.0058475,97.6343,106.2963,158.6527,201.7145,0,U,39417,999,45790,0.0001998,1.588e-05,0.0,satnogs,2022-05-13 13:10:41.661533
63,CINEMA-3 (KHUSAT-2),2013-066L,2022-05-12T08:18:26.821728,14.7007955,0.0103288,97.797,73.8515,352.4642,7.5007,0,U,39426,999,45396,0.00019311,1.207e-05,0.0,satnogs,2022-05-13 13:10:41.661533
64,TRITON-1,2013-066M,2022-05-13T01:11:22.469568,14.68823879,0.0112823,97.8115,70.3902,18.6935,341.8364,0,U,39427,999,45377,0.00035385,2.224e-05,0.0,satnogs,2022-05-13 13:10:41.661533
65,DELFI-N3XT,2013-066N,2022-05-12T13:33:03.950784,14.68940653,0.011904,97.813,68.4729,33.3141,327.5484,0,U,39428,999,45326,0.00052409,3.367e-05,0.0,satnogs,2022-05-13 13:10:41.661533
66,GOMX-1,2013-066Q,2022-05-13T03:54:30.308256,14.6008018,0.0149995,97.8113,42.3765,155.6735,205.166,0,U,39430,999,45114,0.00015504,8.23e-06,0.0,satnogs,2022-05-13 13:10:41.661533
67,BRITE-PL1 (LEM),2013-066R,2022-05-12T13:26:54.487968,14.47318341,0.0201174,97.7057,349.4516,340.3272,19.0239,0,U,39431,999,44717,8.4205e-05,3.48e-06,0.0,satnogs,2022-05-13 13:10:41.661533
68,ICUBE-1,2013-066S,2022-05-12T13:32:09.289824,14.91783961,0.0031899,97.4684,138.2049,27.6828,332.6082,0,U,39432,999,45935,0.00031027,3.105e-05,0.0,satnogs,2022-05-13 13:10:41.661533
69,HUMSAT-D,2013-066T,2022-05-12T23:50:27.173184,14.94112833,0.0029414,97.4517,146.1485,2.1657,357.9686,0,U,39433,999,46110,0.00040339,4.295e-05,0.0,satnogs,2022-05-13 13:10:41.661533
70,VELOX-PII,2013-066Y,2022-05-13T04:19:41.948832,14.78786959,0.0068655,97.6897,97.4033,210.371,149.3517,0,U,39438,999,45692,0.00015391,1.124e-05,0.0,satnogs,2022-05-13 13:10:41.661533
71,FIRST-MOVE,2013-066Z,2022-05-12T20:59:33.842400,14.83903269,0.0063866,97.635,108.2372,155.4207,205.0075,0,U,39439,999,45677,0.00039638,3.36e-05,0.0,satnogs,2022-05-13 13:10:41.661533
72,CUBEBUG-2 (LO-74),2013-066AA,2022-05-12T19:40:30.211104,14.76895504,0.0077335,97.7236,91.8846,246.7228,112.5829,0,U,39440,999,45502,0.00017958,1.272e-05,0.0,satnogs,2022-05-13 13:10:41.661533
73,NEE-02 KRYSAOR,2013-066AB,2022-05-12T20:37:59.477952,14.75662278,0.0079097,97.7345,89.1276,260.1229,99.1045,0,U,39441,999,45478,0.0001366,9.28e-06,0.0,satnogs,2022-05-13 13:10:41.661533
74,FUNCUBE-1 (AO-73),2013-066AE,2022-05-12T21:38:30.362784,14.83234752,0.005766,97.6224,108.4157,148.1414,212.3309,0,U,39444,999,45625,0.00023098,1.891e-05,0.0,satnogs,2022-05-13 13:10:41.661533
75,HINCUBE,2013-066AF,2022-05-12T16:17:35.746944,14.83044211,0.005767,97.6239,108.0272,150.9854,209.4587,0,U,39445,999,45616,0.0002185,1.777e-05,0.0,satnogs,2022-05-13 13:10:41.661533
76,UWE-3,2013-066AG,2022-05-12T20:03:06.018912,14.79438469,0.0068056,97.6829,98.4489,204.2437,155.5569,0,U,39446,999,45519,0.00016935,1.261e-05,0.0,satnogs,2022-05-13 13:10:41.661533
77,AIST-1 (RS-41),2013-078C,2022-05-13T02:13:36.852096,14.88369864,0.0018525,82.4172,270.4443,220.3411,139.6437,0,U,39492,999,45452,0.00010561,1.005e-05,0.0,satnogs,2022-05-13 13:10:41.661533
