STRAND-1                
1 39090U 13009E   22132.81546367  .00000209  00000+0  87757-4 0  9992
2 39090  98.4073 331.8788 0009594  24.9660 335.1988 14.35282804482284
BRITE-AUSTRIA           
1 39091U 13009F   22132.79968808  .00000142  00000+0  64403-4 0  9997
2 39091  98.4086 331.0273 0011064  30.4689 329.7138 14.35261297482311
UNIBRITE                
1 39092U 13009G   22132.81813040  .00000149  00000+0  67216-4 0  9990
2 39092  98.4119 330.8013 0009891  26.5135 333.6554 14.35132024482271
SOMP                    
1 39134U 13015E   22132.56668041  .00013214  00000+0  48890-3 0  9998
2 39134  64.8616 179.5833 0034313 287.1914  72.5461 15.27408671501759
BEESAT-3                
1 39135U 13015F   22132.68188051  .00009974  00000+0  42197-3 0  9992
2 39135  64.8668 214.4237 0036324 294.0461  65.6868 15.23064107500663
BEESAT-2                
1 39136U 13015G   22132.64204781  .00009635  00000+0  42530-3 0  9993
2 39136  64.8754 222.4926 0013973 295.5975  64.3709 15.22151615500463
NEE-01 PEGASO           
1 39151U 13018B   22132.76822969  .00001175  00000+0  15883-3 0  9992
2 39151  97.9876 238.5628 0017004  15.7969 344.3771 14.80837221488409
CUBEBUG-1 (CAPITAN BETO)
1 39153U 13018D   22133.18991091  .00001470  00000+0  19400-3 0  9991
2 39153  98.0086 243.2741 0016708   9.1387 351.0126 14.81515203488612
ESTCUBE 1               
1 39161U 13021C   22133.16519851  .00000975  00000+0  15986-3 0  9996
2 39161  97.9072 211.3192 0009563 167.1098 193.0354 14.72865285484278
FENGYUN 3C              
1 39260U 13052A   22133.14961539  .00000052  00000+0  47056-4 0  9992
2 39260  98.4574 163.0458 0011647  22.6902 337.4786 14.15918572446922
CASSIOPE                
1 39265U 13055A   22132.89497952  .00013403  00000+0  35662-3 0  9997
2 39265  80.9626 305.0332 0626625  63.6080 302.8026 14.37895945447229
ZACUBE-1 (TSHEPISOSAT)  
1 39417U 13066B   22133.19695931  .00001588  00000+0  19980-3 0  9995
2 39417  97.6343 106.2963 0058475 158.6527 201.7145 14.82190528457903
CINEMA-3 (KHUSAT-2)     
1 39426U 13066L   22132.34614377  .00001207  00000+0  19311-3 0  9992
2 39426  97.7970  73.8515 0103288 352.4642   7.5007 14.70079550453966
TRITON-1                
1 39427U 13066M   22133.04956562  .00002224  00000+0  35385-3 0  9995
2 39427  97.8115  70.3902 0112823  18.6935 341.8364 14.68823879453779
DELFI-N3XT              
1 39428U 13066N   22132.56462906  .00003367  00000+0  52409-3 0  9991
2 39428  97.8130  68.4729 0119040  33.3141 327.5484 14.68940653453261
GOMX-1                  
1 39430U 13066Q   22133.16285079  .00000823  00000+0  15504-3 0  9994
2 39430  97.8113  42.3765 0149995 155.6735 205.1660 14.60080180451149
BRITE-PL1 (LEM)         
1 39431U 13066R   22132.56035287  .00000348  00000+0  84205-4 0  9999
2 39431  97.7057 349.4516 0201174 340.3272  19.0239 14.47318341447178
ICUBE-1                 
1 39432U 13066S   22132.56399641  .00003105  00000+0  31027-3 0  9994
2 39432  97.4684 138.2049 0031899  27.6828 332.6082 14.91783961459350
HUMSAT-D                
1 39433U 13066T   22132.99337006  .00004295  00000+0  40339-3 0  9996
2 39433  97.4517 146.1485 0029414   2.1657 357.9686 14.94112833461109
VELOX-PII               
1 39438U 13066Y   22133.18034663  .00001124  00000+0  15391-3 0  9994
2 39438  97.6897  97.4033 0068655 210.3710 149.3517 14.78786959456925
FIRST-MOVE              
1 39439U 13066Z   22132.87469725  .00003360  00000+0  39638-3 0  9995
2 39439  97.6350 108.2372 0063866 155.4207 205.0075 14.83903269456779
CUBEBUG-2 (LO-74)       
1 39440U 13066AA  22132.81979411  .00001272  00000+0  17958-3 0  9990
2 39440  97.7236  91.8846 0077335 246.7228 112.5829 14.76895504455021
NEE-02 KRYSAOR          
1 39441U 13066AB  22132.85971618  .00000928  00000+0  13660-3 0  9999
2 39441  97.7345  89.1276 0079097 260.1229  99.1045 14.75662278454789
FUNCUBE-1 (AO-73)       
1 39444U 13066AE  22132.90174031  .00001891  00000+0  23098-3 0  9998
2 39444  97.6224 108.4157 0057660 148.1414 212.3309 14.83234752456250
HINCUBE                 
1 39445U 13066AF  22132.67888596  .00001777  00000+0  21850-3 0  9998
2 39445  97.6239 108.0272 0057670 150.9854 209.4587 14.83044211456165
UWE-3                   
1 39446U 13066AG  22132.83548633  .00001261  00000+0  16935-3 0  9998
2 39446  97.6829  98.4489 0068056 204.2437 155.5569 14.79438469455193
AIST-1 (RS-41)          
1 39492U 13078C   22133.09278764  .00001005  00000+0  10561-3 0  9991
2 39492  82.4172 270.4443 0018525 220.3411 139.6437 14.88369864454521
